NORAD_CAT_ID,OBJECT_NAME,OBJECT_TYPE,EPOCH,MEAN_MOTION,ECCENTRICITY,INCLINATION,RA_OF_ASC_NODE,ARG_OF_PERICENTER,MEAN_ANOMALY,BSTAR,MEAN_MOTION_DOT,MEAN_MOTION_DDOT,TLE_LINE0,TLE_LINE1,TLE_LINE2,SEMIMAJOR_AXIS,PERIOD,APOGEE,PERIGEE,DECAYED
56481.0,STARLINK-6222,PAYLOAD,2024-05-29 12:39:44,14.98329886,0.0003155,69.9998,321.121,266.7553,93.3245,-2.1815e-05,-3.53e-06,0.0,0 STARLINK-6222,1 56481U 23064AK  24150.52760051 -.00000353  00000-0 -21815-4 0  9991,2 56481  69.9998 321.1210 0003155 266.7553  93.3245 14.98329886 58865,6950.193,96.107,574.251,569.865,0.0
56481.0,STARLINK-6222,PAYLOAD,2024-05-29 14:15:52,14.98329693,0.0003161,69.9998,320.9527,266.318,93.7618,-2.4469e-05,-3.85e-06,0.0,0 STARLINK-6222,1 56481U 23064AK  24150.59436063 -.00000385  00000-0 -24469-4 0  9994,2 56481  69.9998 320.9527 0003161 266.3180  93.7618 14.98329693 58518,6950.194,96.107,574.256,569.862,0.0
56481.0,STARLINK-6222,PAYLOAD,2024-05-29 20:40:25,14.98329479,0.0003158,69.9999,320.2795,264.9271,95.1528,-2.4501e-05,-3.85e-06,0.0,0 STARLINK-6222,1 56481U 23064AK  24150.86140072 -.00000385  00000-0 -24501-4 0  9993,2 56481  69.9999 320.2795 0003158 264.9271  95.1528 14.98329479 58912,6950.195,96.107,574.254,569.865,0.0
56481.0,STARLINK-6222,PAYLOAD,2024-05-30 12:41:45,14.98330629,0.0003151,70.0,318.5969,262.01,98.0702,-5.5241e-06,-1.59e-06,0.0,0 STARLINK-6222,1 56481U 23064AK  24151.52899906 -.00000159  00000-0 -55241-5 0  9999,2 56481  70.0000 318.5969 0003151 262.0100  98.0702 14.98330629 59011,6950.191,96.107,574.246,569.866,0.0
56481.0,STARLINK-6222,PAYLOAD,2024-05-30 14:17:53,14.98330527,0.0003161,70.0,318.4286,261.834,98.246,-7.679e-06,-1.85e-06,0.0,0 STARLINK-6222,1 56481U 23064AK  24151.59575910 -.00000185  00000-0 -76790-5 0  9993,2 56481  70.0000 318.4286 0003161 261.8340  98.2460 14.98330527 58666,6950.191,96.107,574.253,569.859,0.0
56481.0,STARLINK-6222,PAYLOAD,2024-05-30 20:42:25,14.98332026,0.0003248,69.9997,317.7545,267.9595,92.1192,7.9768e-06,2e-08,0.0,0 STARLINK-6222,1 56481U 23064AK  24151.86279785  .00000002  00000-0  79768-5 0  9998,2 56481  69.9997 317.7545 0003248 267.9595  92.1192 14.98332026 59069,6950.187,96.107,574.309,569.794,0.0
56481.0,STARLINK-6222,PAYLOAD,2024-05-31 12:43:46,14.98329713,0.0003244,69.9997,316.0711,267.7025,92.3763,1.9836e-05,1.44e-06,0.0,0 STARLINK-6222,1 56481U 23064AK  24152.53039852  .00000144  00000-0  19836-4 0  9998,2 56481  69.9997 316.0711 0003244 267.7025  92.3763 14.98329713 59164,6950.194,96.107,574.313,569.804,0.0
56481.0,STARLINK-6222,PAYLOAD,2024-05-31 14:19:54,14.98329737,0.0003247,69.9997,315.9027,267.6635,92.4153,1.9607e-05,1.41e-06,0.0,0 STARLINK-6222,1 56481U 23064AK  24152.59715848  .00000141  00000-0  19607-4 0  9993,2 56481  69.9997 315.9027 0003247 267.6635  92.4153 14.98329737 58812,6950.194,96.107,574.315,569.802,0.0
56481.0,STARLINK-6222,PAYLOAD,2024-05-31 20:44:26,14.983339,0.0003302,69.9995,315.2285,269.3129,90.7652,5.6627e-05,5.83e-06,0.0,0 STARLINK-6222,1 56481U 23064AK  24152.86419439  .00000583  00000-0  56627-4 0  9993,2 56481  69.9995 315.2285 0003302 269.3129  90.7652 14.98333900 59215,6950.181,96.107,574.341,569.751,0.0
56481.0,STARLINK-6222,PAYLOAD,2024-06-01 04:45:07,14.98329441,0.0003205,69.9997,314.3864,269.6666,90.4126,-1.1868e-05,-2.35e-06,0.0,0 STARLINK-6222,1 56481U 23064AK  24153.19799884 -.00000235  00000-0 -11868-4 0  9999,2 56481  69.9997 314.3864 0003205 269.6666  90.4126 14.98329441 59264,6950.195,96.107,574.287,569.832,0.0
56481.0,STARLINK-6222,PAYLOAD,2024-06-01 12:45:47,14.98325841,0.0003211,69.9995,313.5449,269.3839,90.6952,-2.8651e-05,-4.35e-06,0.0,0 STARLINK-6222,1 56481U 23064AK  24153.53180169 -.00000435  00000-0 -28651-4 0  9997,2 56481  69.9995 313.5449 0003211 269.3839  90.6952 14.98325841 59313,6950.206,96.107,574.302,569.839,0.0
56481.0,STARLINK-6222,PAYLOAD,2024-06-01 14:21:55,14.98325695,0.0003214,69.9995,313.3765,269.3674,90.7117,-2.9708e-05,-4.47e-06,0.0,0 STARLINK-6222,1 56481U 23064AK  24153.59856192 -.00000447  00000-0 -29708-4 0  9996,2 56481  69.9995 313.3765 0003214 269.3674  90.7117 14.98325695 58963,6950.206,96.107,574.305,569.837,0.0
56481.0,STARLINK-6222,PAYLOAD,2024-06-01 20:46:27,14.98327588,0.0003304,69.9995,312.7038,269.6182,90.4599,-3.9851e-05,-5.68e-06,0.0,0 STARLINK-6222,1 56481U 23064AK  24153.86560127 -.00000568  00000-0 -39851-4 0  9990,2 56481  69.9995 312.7038 0003304 269.6182  90.4599 14.98327588 59365,6950.2,96.107,574.362,569.769,0.0
56481.0,STARLINK-6222,PAYLOAD,2024-06-02 11:11:40,14.98328632,0.0003316,69.9994,311.189,269.9421,90.1358,-2.2209e-05,-3.58e-06,0.0,0 STARLINK-6222,1 56481U 23064AK  24154.46644058 -.00000358  00000-0 -22209-4 0  9999,2 56481  69.9994 311.1890 0003316 269.9421  90.1358 14.98328632 59456,6950.197,96.107,574.367,569.757,0.0
56481.0,STARLINK-6222,PAYLOAD,2024-06-03 03:13:00,14.98323768,0.0003138,69.9999,309.5058,269.415,90.665,0.00016417,1.866e-05,0.0,0 STARLINK-6222,1 56481U 23064AK  24155.13403918  .00001866  00000-0  16417-3 0  9998,2 56481  69.9999 309.5058 0003138 269.4150  90.6650 14.98323768 59550,6950.212,96.107,574.258,569.896,0.0
56481.0,STARLINK-6222,PAYLOAD,2024-06-03 11:13:41,14.9832941,0.000329,69.9997,308.664,271.8014,88.2768,6.6528e-05,7.01e-06,0.0,0 STARLINK-6222,1 56481U 23064AK  24155.46783673  .00000701  00000-0  66528-4 0  9999,2 56481  69.9997 308.6640 0003290 271.8014  88.2768 14.98329410 59609,6950.195,96.107,574.346,569.773,0.0
56481.0,STARLINK-6222,PAYLOAD,2024-06-04 03:15:01,14.98334881,0.0003399,69.9992,306.9796,275.5637,84.5135,3.6241e-05,3.39e-06,0.0,0 STARLINK-6222,1 56481U 23064AK  24156.13543311  .00000339  00000-0  36241-4 0  9993,2 56481  69.9992 306.9796 0003399 275.5637  84.5135 14.98334881 59705,6950.178,96.107,574.405,569.68,0.0
56481.0,STARLINK-6222,PAYLOAD,2024-06-04 11:15:41,14.98331865,0.0003168,69.9994,306.1389,272.8022,87.2774,-3.4967e-06,-1.35e-06,0.0,0 STARLINK-6222,1 56481U 23064AK  24156.46923586 -.00000135  00000-0 -34967-5 0  9995,2 56481  69.9994 306.1389 0003168 272.8022  87.2774 14.98331865 59752,6950.187,96.107,574.254,569.85,0.0
56481.0,STARLINK-6222,PAYLOAD,2024-06-04 12:51:50,14.983299,0.0003243,69.9989,305.9704,274.6044,85.4744,-2.5518e-05,-3.98e-06,0.0,0 STARLINK-6222,1 56481U 23064AK  24156.53599762 -.00000398  00000-0 -25518-4 0  9990,2 56481  69.9989 305.9704 0003243 274.6044  85.4744 14.98329900 59408,6950.193,96.107,574.312,569.804,0.0
56481.0,STARLINK-6222,PAYLOAD,2024-06-04 16:04:06,14.98329918,0.0003209,69.9994,305.6351,271.1338,88.9453,4.9059e-05,4.92e-06,0.0,0 STARLINK-6222,1 56481U 23064AK  24156.66951519  .00000492  00000-0  49059-4 0  9995,2 56481  69.9994 305.6351 0003209 271.1338  88.9453 14.98329918 59784,6950.193,96.107,574.288,569.828,0.0
56481.0,STARLINK-6222,PAYLOAD,2024-06-05 03:17:02,14.98332579,0.0003441,69.9992,304.4562,271.229,88.8475,1.033e-05,3e-07,0.0,0 STARLINK-6222,1 56481U 23064AK  24157.13683238  .00000030  00000-0  10330-4 0  9996,2 56481  69.9992 304.4562 0003441 271.2290  88.8475 14.98332579 59857,6950.185,96.107,574.441,569.658,0.0
56481.0,STARLINK-6222,PAYLOAD,2024-06-05 11:17:43,14.98323445,0.0003122,69.9984,303.6126,273.063,87.0171,-5.0035e-05,-6.9e-06,0.0,0 STARLINK-6222,1 56481U 23064AK  24157.47064150 -.00000690  00000-0 -50035-4 0  9999,2 56481  69.9984 303.6126 0003122 273.0630  87.0171 14.98323445 59901,6950.213,96.107,574.248,569.908,0.0
56481.0,STARLINK-6222,PAYLOAD,2024-06-05 16:06:07,14.98326042,0.0003198,69.9983,303.1086,273.3125,86.7668,-0.0001186,-1.508e-05,0.0,0 STARLINK-6222,1 56481U 23064AK  24157.67092208 -.00001508  00000-0 -11860-3 0  9997,2 56481  69.9983 303.1086 0003198 273.3125  86.7668 14.98326042 59931,6950.205,96.107,574.293,569.847,0.0
56481.0,STARLINK-6222,PAYLOAD,2024-06-06 03:19:04,14.98323148,0.0003203,69.9991,301.9313,272.8024,87.2768,-3.1546e-05,-4.69e-06,0.0,0 STARLINK-6222,1 56481U 23064AK  24158.13824203 -.00000469  00000-0 -31546-4 0  9996,2 56481  69.9991 301.9313 0003203 272.8024  87.2768 14.98323148 60009,6950.214,96.107,574.305,569.853,0.0
56481.0,STARLINK-6222,PAYLOAD,2024-06-06 11:19:43,14.98329128,0.0003298,69.9992,301.0892,272.3414,87.7368,3.42e-05,3.15e-06,0.0,0 STARLINK-6222,1 56481U 23064AK  24158.47203679  .00000315  00000-0  34200-4 0  9999,2 56481  69.9992 301.0892 0003298 272.3414  87.7368 14.98329128 60055,6950.196,96.107,574.353,569.768,0.0
56481.0,STARLINK-6222,PAYLOAD,2024-06-06 16:08:07,14.98336113,0.0003313,69.9993,300.5836,271.4318,88.6462,3.7642e-05,3.56e-06,0.0,0 STARLINK-6222,1 56481U 23064AK  24158.67231213  .00000356  00000-0  37642-4 0  9994,2 56481  69.9993 300.5836 0003313 271.4318  88.6462 14.98336113 60089,6950.174,96.107,574.342,569.736,0.0
56481.0,STARLINK-6222,PAYLOAD,2024-06-07 09:45:37,14.98322447,0.0003224,69.9994,298.7321,271.4492,88.6298,0.00010455,1.154e-05,0.0,0 STARLINK-6222,1 56481U 23064AK  24159.40667891  .00001154  00000-0  10455-3 0  9990,2 56481  69.9994 298.7321 0003224 271.4492  88.6298 14.98322447 60195,6950.216,96.107,574.322,569.84,0.0
56481.0,STARLINK-6222,PAYLOAD,2024-06-07 16:10:09,14.98328543,0.0003278,69.9996,298.0586,270.7062,89.3721,9.7733e-05,1.073e-05,0.0,0 STARLINK-6222,1 56481U 23064AK  24159.67371602  .00001073  00000-0  97733-4 0  9996,2 56481  69.9996 298.0586 0003278 270.7062  89.3721 14.98328543 60234,6950.197,96.107,574.341,569.784,0.0
56481.0,STARLINK-6222,PAYLOAD,2024-06-08 11:23:45,14.98336432,0.0003288,69.9993,296.0386,269.7659,90.3123,4.0986e-05,3.96e-06,0.0,0 STARLINK-6222,1 56481U 23064AK  24160.47483121  .00000396  00000-0  40986-4 0  9991,2 56481  69.9993 296.0386 0003288 269.7659  90.3123 14.98336432 59993,6950.173,96.107,574.323,569.753,0.0
56481.0,STARLINK-6222,PAYLOAD,2024-06-09 01:48:57,14.98339506,0.0003515,69.9995,294.5236,272.7354,87.3403,8.249e-05,8.92e-06,0.0,0 STARLINK-6222,1 56481U 23064AK  24161.07566451  .00000892  00000-0  82490-4 0  9993,2 56481  69.9995 294.5236 0003515 272.7354  87.3403 14.98339506 60445,6950.163,96.106,574.471,569.586,0.0
